0 BREEZE-M R/B
1 39286U 13056B   13284.97839500 -.00000192  00000-0  00000+0 0    96
2 39286 023.5540 341.1204 6048667 006.6149 358.8886 02.18170410   254
0 BREEZE-M R/B
1 39286U 13056B   13290.47825042  .00000000  00000-0  10000-3 0   108
2 39286 023.5421 340.0641 6047990 008.4436 358.5283 02.18168938   375
0 BREEZE-M R/B
1 39286U 13056B   13294.14486405 -.00000153  00000-0  00000+0 0   107
2 39286 023.5644 339.3920 6044957 009.6690 358.3451 02.18173196   454
0 BREEZE-M R/B
1 39286U 13056B   13295.51971719 -.00000170  00000-0  00000+0 0   116
2 39286 023.5588 339.1429 6046619 010.0900 358.1697 02.18171997   480
